STARLINK-1759           
1 46340U 20062R   25269.64177791  .00095792  00000+0  40065-2 0  9991
2 46340  53.0449  25.9699 0004230 229.7087 130.3540 15.22798248279673
STARLINK-1762           
1 46342U 20062T   25269.63734406 -.00003921  00000+0 -24450-3 0  9990
2 46342  53.0562  33.0759 0001445  81.0104 279.1048 15.06392204279581
STARLINK-1764           
1 46343U 20062U   25269.56546651 -.00003409  00000+0 -21009-3 0  9994
2 46343  53.0563  13.3996 0001326  78.9873 281.1265 15.06398646279853
STARLINK-1765           
1 46344U 20062V   25270.25002315  .01926778  00000+0  10370+0 0  9994
2 46344  53.0559  10.2981 0001060  51.3589 338.5874 15.10731758  5842
STARLINK-1767           
1 46345U 20062W   25270.30477248  .00150695  00000+0  33457-2 0  9992
2 46345  53.0518  16.6079 0009976 277.5951  82.3921 15.42638810279878
STARLINK-1547           
1 46347U 20062Y   25269.48605162  .00074336  00000+0  27916-2 0  9999
2 46347  53.0502 339.0540 0003548 268.5618  91.4974 15.26541101280315
STARLINK-1553           
1 46348U 20062Z   25270.21204096  .00027339  00000+0  11263-2 0  9993
2 46348  53.0480 349.7526 0005506 332.5771  27.4934 15.23913611280244
STARLINK-1575           
1 46349U 20062AA  25269.50888158  .00092837  00000+0  27984-2 0  9993
2 46349  53.0451 335.8866 0007710 304.0918  55.9350 15.33533489280376
STARLINK-1646           
1 46351U 20062AC  25270.28422109  .00010639  00000+0  73192-3 0  9996
2 46351  53.0558  10.1717 0001387  95.2655 264.8492 15.06405773279972
STARLINK-1653           
1 46352U 20062AD  25269.66869081  .00008799  00000+0  60893-3 0  9999
2 46352  53.0560  12.9367 0001769 108.1486 251.9696 15.06396627279876
STARLINK-1656           
1 46353U 20062AE  25269.60048951  .00001885  00000+0  14546-3 0  9992
2 46353  53.0564  33.2436 0001196  90.8730 269.2396 15.06388951279574
STARLINK-1657           
1 46354U 20062AF  25269.65578035  .00000128  00000+0  27500-4 0  9993
2 46354  53.0561  32.9910 0001233 116.6453 243.4662 15.06397759279583
STARLINK-1661           
1 46355U 20062AG  25269.62997011  .00001585  00000+0  12532-3 0  9996
2 46355  53.0566  33.1078 0001453 100.5126 259.6027 15.06391307279587
STARLINK-1665           
1 46356U 20062AH  25269.64472371 -.00000826  00000+0 -36570-4 0  9994
2 46356  53.0566  33.0868 0001012  97.3667 262.7437 15.06385210279584
STARLINK-1666           
1 46357U 20062AJ  25270.30264172  .00035487  00000+0  23860-2 0  9993
2 46357  53.0563  10.0928 0001391  74.9753 285.1390 15.06450849279961
STARLINK-1707           
1 46359U 20062AL  25270.19252724  .00083324  00000+0  31287-2 0  9997
2 46359  53.0381 331.5349 0005048 296.2406  63.8073 15.26483437280496
