[{"OBJECT_NAME":"STARLINK-1759","OBJECT_ID":"2020-062R","EPOCH":"2025-09-26T15:24:09.611424","MEAN_MOTION":15.22798248,"ECCENTRICITY":0.000423,"INCLINATION":53.0449,"RA_OF_ASC_NODE":25.9699,"ARG_OF_PERICENTER":229.7087,"MEAN_ANOMALY":130.354,"EPHEMERIS_TYPE":0,"CLASSIFICATION_TYPE":"U","NORAD_CAT_ID":46340,"ELEMENT_SET_NO":999,"REV_AT_EPOCH":27967,"BSTAR":0.004006546,"MEAN_MOTION_DOT":0.00095792,"MEAN_MOTION_DDOT":0},{"OBJECT_NAME":"STARLINK-1762","OBJECT_ID":"2020-062T","EPOCH":"2025-09-26T15:17:46.526784","MEAN_MOTION":15.06392204,"ECCENTRICITY":0.00014455,"INCLINATION":53.0562,"RA_OF_ASC_NODE":33.0759,"ARG_OF_PERICENTER":81.0104,"MEAN_ANOMALY":279.1048,"EPHEMERIS_TYPE":0,"CLASSIFICATION_TYPE":"U","NORAD_CAT_ID":46342,"ELEMENT_SET_NO":999,"REV_AT_EPOCH":27958,"BSTAR":-0.00024449705,"MEAN_MOTION_DOT":-3.921e-5,"MEAN_MOTION_DDOT":0},{"OBJECT_NAME":"STARLINK-1764","OBJECT_ID":"2020-062U","EPOCH":"2025-09-26T13:34:16.306464","MEAN_MOTION":15.06398646,"ECCENTRICITY":0.00013261,"INCLINATION":53.0563,"RA_OF_ASC_NODE":13.3996,"ARG_OF_PERICENTER":78.9873,"MEAN_ANOMALY":281.1265,"EPHEMERIS_TYPE":0,"CLASSIFICATION_TYPE":"U","NORAD_CAT_ID":46343,"ELEMENT_SET_NO":999,"REV_AT_EPOCH":27985,"BSTAR":-0.00021009456,"MEAN_MOTION_DOT":-3.409e-5,"MEAN_MOTION_DDOT":0},{"OBJECT_NAME":"STARLINK-1765","OBJECT_ID":"2020-062V","EPOCH":"2025-09-27T06:00:02.000160","MEAN_MOTION":15.10731758,"ECCENTRICITY":0.00010606,"INCLINATION":53.0559,"RA_OF_ASC_NODE":10.2981,"ARG_OF_PERICENTER":51.3589,"MEAN_ANOMALY":338.5874,"EPHEMERIS_TYPE":0,"CLASSIFICATION_TYPE":"U","NORAD_CAT_ID":46344,"ELEMENT_SET_NO":999,"REV_AT_EPOCH":584,"BSTAR":0.10369813,"MEAN_MOTION_DOT":0.01926778,"MEAN_MOTION_DDOT":0},{"OBJECT_NAME":"STARLINK-1767","OBJECT_ID":"2020-062W","EPOCH":"2025-09-27T07:18:52.342272","MEAN_MOTION":15.4263881,"ECCENTRICITY":0.00099764,"INCLINATION":53.0518,"RA_OF_ASC_NODE":16.6079,"ARG_OF_PERICENTER":277.5951,"MEAN_ANOMALY":82.3921,"EPHEMERIS_TYPE":0,"CLASSIFICATION_TYPE":"U","NORAD_CAT_ID":46345,"ELEMENT_SET_NO":999,"REV_AT_EPOCH":27987,"BSTAR":0.0033456521,"MEAN_MOTION_DOT":0.00150695,"MEAN_MOTION_DDOT":0},{"OBJECT_NAME":"STARLINK-1547","OBJECT_ID":"2020-062Y","EPOCH":"2025-09-26T11:39:54.859968","MEAN_MOTION":15.26541101,"ECCENTRICITY":0.00035486,"INCLINATION":53.0502,"RA_OF_ASC_NODE":339.054,"ARG_OF_PERICENTER":268.5618,"MEAN_ANOMALY":91.4974,"EPHEMERIS_TYPE":0,"CLASSIFICATION_TYPE":"U","NORAD_CAT_ID":46347,"ELEMENT_SET_NO":999,"REV_AT_EPOCH":28031,"BSTAR":0.0027915558,"MEAN_MOTION_DOT":0.00074336,"MEAN_MOTION_DDOT":0},{"OBJECT_NAME":"STARLINK-1553","OBJECT_ID":"2020-062Z","EPOCH":"2025-09-27T05:05:20.338944","MEAN_MOTION":15.23913611,"ECCENTRICITY":0.00055067,"INCLINATION":53.048,"RA_OF_ASC_NODE":349.7526,"ARG_OF_PERICENTER":332.5771,"MEAN_ANOMALY":27.4934,"EPHEMERIS_TYPE":0,"CLASSIFICATION_TYPE":"U","NORAD_CAT_ID":46348,"ELEMENT_SET_NO":999,"REV_AT_EPOCH":28024,"BSTAR":0.0011262948,"MEAN_MOTION_DOT":0.00027339,"MEAN_MOTION_DDOT":0},{"OBJECT_NAME":"STARLINK-1575","OBJECT_ID":"2020-062AA","EPOCH":"2025-09-26T12:12:47.368512","MEAN_MOTION":15.33533489,"ECCENTRICITY":0.00077108,"INCLINATION":53.0451,"RA_OF_ASC_NODE":335.8866,"ARG_OF_PERICENTER":304.0918,"MEAN_ANOMALY":55.935,"EPHEMERIS_TYPE":0,"CLASSIFICATION_TYPE":"U","NORAD_CAT_ID":46349,"ELEMENT_SET_NO":999,"REV_AT_EPOCH":28037,"BSTAR":0.0027983923,"MEAN_MOTION_DOT":0.00092837,"MEAN_MOTION_DDOT":0},{"OBJECT_NAME":"STARLINK-1646","OBJECT_ID":"2020-062AC","EPOCH":"2025-09-27T06:49:16.702176","MEAN_MOTION":15.06405773,"ECCENTRICITY":0.00013871,"INCLINATION":53.0558,"RA_OF_ASC_NODE":10.1717,"ARG_OF_PERICENTER":95.2655,"MEAN_ANOMALY":264.8492,"EPHEMERIS_TYPE":0,"CLASSIFICATION_TYPE":"U","NORAD_CAT_ID":46351,"ELEMENT_SET_NO":999,"REV_AT_EPOCH":27997,"BSTAR":0.00073191711,"MEAN_MOTION_DOT":0.00010639,"MEAN_MOTION_DDOT":0},{"OBJECT_NAME":"STARLINK-1653","OBJECT_ID":"2020-062AD","EPOCH":"2025-09-26T16:02:54.885984","MEAN_MOTION":15.06396627,"ECCENTRICITY":0.00017699,"INCLINATION":53.056,"RA_OF_ASC_NODE":12.9367,"ARG_OF_PERICENTER":108.1486,"MEAN_ANOMALY":251.9696,"EPHEMERIS_TYPE":0,"CLASSIFICATION_TYPE":"U","NORAD_CAT_ID":46352,"ELEMENT_SET_NO":999,"REV_AT_EPOCH":27987,"BSTAR":0.00060893154,"MEAN_MOTION_DOT":8.799e-5,"MEAN_MOTION_DDOT":0},{"OBJECT_NAME":"STARLINK-1656","OBJECT_ID":"2020-062AE","EPOCH":"2025-09-26T14:24:42.293664","MEAN_MOTION":15.06388951,"ECCENTRICITY":0.00011963,"INCLINATION":53.0564,"RA_OF_ASC_NODE":33.2436,"ARG_OF_PERICENTER":90.873,"MEAN_ANOMALY":269.2396,"EPHEMERIS_TYPE":0,"CLASSIFICATION_TYPE":"U","NORAD_CAT_ID":46353,"ELEMENT_SET_NO":999,"REV_AT_EPOCH":27957,"BSTAR":0.00014546066,"MEAN_MOTION_DOT":1.885e-5,"MEAN_MOTION_DDOT":0},{"OBJECT_NAME":"STARLINK-1657","OBJECT_ID":"2020-062AF","EPOCH":"2025-09-26T15:44:19.422240","MEAN_MOTION":15.06397759,"ECCENTRICITY":0.00012337,"INCLINATION":53.0561,"RA_OF_ASC_NODE":32.991,"ARG_OF_PERICENTER":116.6453,"MEAN_ANOMALY":243.4662,"EPHEMERIS_TYPE":0,"CLASSIFICATION_TYPE":"U","NORAD_CAT_ID":46354,"ELEMENT_SET_NO":999,"REV_AT_EPOCH":27958,"BSTAR":2.7499886e-5,"MEAN_MOTION_DOT":1.28e-6,"MEAN_MOTION_DDOT":0},{"OBJECT_NAME":"STARLINK-1661","OBJECT_ID":"2020-062AG","EPOCH":"2025-09-26T15:07:09.417504","MEAN_MOTION":15.06391307,"ECCENTRICITY":0.00014531,"INCLINATION":53.0566,"RA_OF_ASC_NODE":33.1078,"ARG_OF_PERICENTER":100.5126,"MEAN_ANOMALY":259.6027,"EPHEMERIS_TYPE":0,"CLASSIFICATION_TYPE":"U","NORAD_CAT_ID":46355,"ELEMENT_SET_NO":999,"REV_AT_EPOCH":27958,"BSTAR":0.00012532097,"MEAN_MOTION_DOT":1.585e-5,"MEAN_MOTION_DDOT":0},{"OBJECT_NAME":"STARLINK-1665","OBJECT_ID":"2020-062AH","EPOCH":"2025-09-26T15:28:24.128544","MEAN_MOTION":15.0638521,"ECCENTRICITY":0.00010128,"INCLINATION":53.0566,"RA_OF_ASC_NODE":33.0868,"ARG_OF_PERICENTER":97.3667,"MEAN_ANOMALY":262.7437,"EPHEMERIS_TYPE":0,"CLASSIFICATION_TYPE":"U","NORAD_CAT_ID":46356,"ELEMENT_SET_NO":999,"REV_AT_EPOCH":27958,"BSTAR":-3.6569882e-5,"MEAN_MOTION_DOT":-8.26e-6,"MEAN_MOTION_DDOT":0},{"OBJECT_NAME":"STARLINK-1666","OBJECT_ID":"2020-062AJ","EPOCH":"2025-09-27T07:15:48.244608","MEAN_MOTION":15.06450849,"ECCENTRICITY":0.00013913,"INCLINATION":53.0563,"RA_OF_ASC_NODE":10.0928,"ARG_OF_PERICENTER":74.9753,"MEAN_ANOMALY":285.139,"EPHEMERIS_TYPE":0,"CLASSIFICATION_TYPE":"U","NORAD_CAT_ID":46357,"ELEMENT_SET_NO":999,"REV_AT_EPOCH":27996,"BSTAR":0.0023860474,"MEAN_MOTION_DOT":0.00035487,"MEAN_MOTION_DDOT":0},{"OBJECT_NAME":"STARLINK-1707","OBJECT_ID":"2020-062AL","EPOCH":"2025-09-27T04:37:14.353536","MEAN_MOTION":15.26483437,"ECCENTRICITY":0.00050482,"INCLINATION":53.0381,"RA_OF_ASC_NODE":331.5349,"ARG_OF_PERICENTER":296.2406,"MEAN_ANOMALY":63.8073,"EPHEMERIS_TYPE":0,"CLASSIFICATION_TYPE":"U","NORAD_CAT_ID":46359,"ELEMENT_SET_NO":999,"REV_AT_EPOCH":28049,"BSTAR":0.0031286673,"MEAN_MOTION_DOT":0.00083324,"MEAN_MOTION_DDOT":0}]
